509P/Catalina,e,8.6039,275.2085,180.0963,7.039941,0.0527656,0.47543577,354.3650,12/03.0/2025,2000,g 10.0,4.0
# From MPEC 2025-W75
510P/Boattini,e,8.2275,280.6678,86.6876,6.483131,0.0597072,0.24802262,343.2679,12/03.0/2025,2000,g  9.5,4.0
# From MPEC 2025-X35
511P/PANSTARRS,e,14.7853,271.0274,81.2270,3.010101,0.1887263,0.23723349,27.3581,12/03.0/2025,2000,g 17.1,4.0
# From MPEC 2025-W75
512P/PANSTARRS,e,12.5688,73.7444,308.7063,5.698217,0.0724595,0.15737456,333.4148,12/03.0/2025,2000,g 10.0,4.0
# From MPEC 2025-X35
513P/Broughton,e,21.3857,56.9970,304.8676,7.255191,0.0504349,0.55154042,8.6861,12/03.0/2025,2000,g 11.0,4.0
# From MPC107687
1I/`Oumuamua,h,09/09.4886/2017,122.6778,24.5997,241.6845,1.199252,0.255240,2000,23.0,2.0
# From MPEC 2025-R69
2I/Borisov,h,12/09.0572/2019,44.2624,307.8024,209.2911,3.345952,1.997724,2000,11.0,4.0
# From MPEC 2025-X35
3I/ATLAS,h,10/29.4831/2025,175.1129,322.1548,128.0077,6.139427,1.356453,2000,11.8,4.0
